NORAD_CAT_ID,OBJECT_NAME,OBJECT_TYPE,EPOCH,MEAN_MOTION,ECCENTRICITY,INCLINATION,RA_OF_ASC_NODE,ARG_OF_PERICENTER,MEAN_ANOMALY,BSTAR,MEAN_MOTION_DOT,MEAN_MOTION_DDOT,TLE_LINE0,TLE_LINE1,TLE_LINE2,SEMIMAJOR_AXIS,PERIOD,APOGEE,PERIGEE,DECAYED
53829.0,STARLINK-4759,PAYLOAD,2023-09-05 12:58:14,15.08836458,0.0001215,53.2163,96.9001,88.2302,271.8829,0.00014724,2.056e-05,0.0,0 STARLINK-4759,1 53829U 22114M   23248.54044295  .00002056  00000-0  14724-3 0  9993,2 53829  53.2163  96.9001 0001215  88.2302 271.8829 15.08836458 54527,6917.891,95.438,540.597,538.916,0.0
53829.0,STARLINK-4759,PAYLOAD,2023-09-06 00:05:56,15.08827871,0.0001487,53.2163,94.8176,87.4329,272.6833,0.00089273,0.00013944,0.0,0 STARLINK-4759,1 53829U 22114M   23249.00412806  .00013944  00000-0  89273-3 0  9991,2 53829  53.2163  94.8176 0001487  87.4329 272.6833 15.08827871 54059,6917.917,95.438,540.811,538.754,0.0
53829.0,STARLINK-4759,PAYLOAD,2023-09-06 06:27:28,15.08834625,0.0001793,53.2164,93.6285,89.3536,270.7661,2.9415e-05,1.8e-06,0.0,0 STARLINK-4759,1 53829U 22114M   23249.26908415  .00000180  00000-0  29415-4 0  9996,2 53829  53.2164  93.6285 0001793  89.3536 270.7661 15.08834625 54636,6917.897,95.438,541.002,538.521,0.0
53829.0,STARLINK-4759,PAYLOAD,2023-09-06 22:21:20,15.08837732,0.000166,53.2164,90.6529,82.6149,277.5032,5.2762e-05,5.52e-06,0.0,0 STARLINK-4759,1 53829U 22114M   23249.93148362  .00000552  00000-0  52762-4 0  9991,2 53829  53.2164  90.6529 0001660  82.6149 277.5032 15.08837732 54193,6917.887,95.438,540.901,538.604,0.0
53829.0,STARLINK-4759,PAYLOAD,2023-09-07 12:39:48,15.08847369,0.0002212,53.2176,87.9767,92.5079,267.6167,-0.0002108,-3.642e-05,0.0,0 STARLINK-4759,1 53829U 22114M   23250.52764000 -.00003642  00000-0 -21080-3 0  9994,2 53829  53.2176  87.9767 0002212  92.5079 267.6167 15.08847369 54821,6917.858,95.437,541.253,538.193,0.0
53829.0,STARLINK-4759,PAYLOAD,2023-09-07 14:15:11,15.08842042,0.0001617,53.2174,87.6794,82.5011,277.6165,-1.8373e-06,-3.17e-06,0.0,0 STARLINK-4759,1 53829U 22114M   23250.59388205 -.00000317  00000-0 -18373-5 0  9999,2 53829  53.2174  87.6794 0001617  82.5011 277.6165 15.08842042 54832,6917.874,95.437,540.858,538.621,0.0
53829.0,STARLINK-4759,PAYLOAD,2023-09-07 23:47:30,15.08845008,0.0001452,53.2167,85.8961,87.1019,273.014,9.7458e-05,1.264e-05,0.0,0 STARLINK-4759,1 53829U 22114M   23250.99132020  .00001264  00000-0  97458-4 0  9995,2 53829  53.2167  85.8961 0001452  87.1019 273.0140 15.08845008 54351,6917.865,95.437,540.735,538.726,0.0
53829.0,STARLINK-4759,PAYLOAD,2023-09-08 20:27:30,15.0885157,0.0001427,53.2169,82.0309,85.3188,274.7968,7.1149e-05,8.45e-06,0.0,0 STARLINK-4759,1 53829U 22114M   23251.85243820  .00000845  00000-0  71149-4 0  9995,2 53829  53.2169  82.0309 0001427  85.3188 274.7968 15.08851570 55029,6917.845,95.437,540.697,538.723,0.0
53829.0,STARLINK-4759,PAYLOAD,2023-09-09 01:13:39,15.08851548,0.0001307,53.2164,81.1371,88.617,271.4971,0.00034273,5.173e-05,0.0,0 STARLINK-4759,1 53829U 22114M   23252.05115715  .00005173  00000-0  34273-3 0  9994,2 53829  53.2164  81.1371 0001307  88.6170 271.4971 15.08851548 54513,6917.845,95.437,540.614,538.806,0.0
53829.0,STARLINK-4759,PAYLOAD,2023-09-09 05:59:50,15.08834163,0.000107,53.2167,80.2466,84.559,275.5524,-9.9283e-06,-4.46e-06,0.0,0 STARLINK-4759,1 53829U 22114M   23252.24988464 -.00000446  00000-0 -99283-5 0  9998,2 53829  53.2167  80.2466 0001070  84.5590 275.5524 15.08834163 54545,6917.898,95.438,540.503,539.023,0.0
53829.0,STARLINK-4759,PAYLOAD,2023-09-09 12:21:22,15.08834779,0.0001118,53.2165,79.0567,85.5964,274.5156,1.6564e-05,-2.4e-07,0.0,0 STARLINK-4759,1 53829U 22114M   23252.51484582 -.00000024  00000-0  16564-4 0  9991,2 53829  53.2165  79.0567 0001118  85.5964 274.5156 15.08834779 55128,6917.896,95.438,540.535,538.988,0.0
53829.0,STARLINK-4759,PAYLOAD,2023-09-09 18:42:54,15.08844803,0.0001343,53.2163,77.8675,81.9143,278.2001,0.00018498,2.658e-05,0.0,0 STARLINK-4759,1 53829U 22114M   23252.77980154  .00002658  00000-0  18498-3 0  9996,2 53829  53.2163  77.8675 0001343  81.9143 278.2001 15.08844803 54624,6917.866,95.437,540.66,538.802,0.0
53829.0,STARLINK-4759,PAYLOAD,2023-09-10 12:12:09,15.08842881,0.0001331,53.2157,74.5962,80.3157,279.7985,0.00021467,3.13e-05,0.0,0 STARLINK-4759,1 53829U 22114M   23253.50844318  .00003130  00000-0  21467-3 0  9995,2 53829  53.2157  74.5962 0001331  80.3157 279.7985 15.08842881 55278,6917.872,95.437,540.657,538.816,0.0
53829.0,STARLINK-4759,PAYLOAD,2023-09-10 18:33:42,15.08841378,0.0001392,53.216,73.407,77.4892,282.6255,0.00019352,2.793e-05,0.0,0 STARLINK-4759,1 53829U 22114M   23253.77340455  .00002793  00000-0  19352-3 0  9991,2 53829  53.2160  73.4070 0001392  77.4892 282.6255 15.08841378 54777,6917.876,95.437,540.704,538.778,0.0
53829.0,STARLINK-4759,PAYLOAD,2023-09-11 05:41:24,15.08844461,0.0001374,53.2162,71.3237,75.739,284.3754,0.00029674,4.438e-05,0.0,0 STARLINK-4759,1 53829U 22114M   23254.23708442  .00004438  00000-0  29674-3 0  9993,2 53829  53.2162  71.3237 0001374  75.7390 284.3754 15.08844461 55382,6917.867,95.437,540.682,538.781,0.0
53829.0,STARLINK-4759,PAYLOAD,2023-09-11 23:10:38,15.08850618,0.0001422,53.2176,68.0516,82.5124,277.603,0.00027913,4.158e-05,0.0,0 STARLINK-4759,1 53829U 22114M   23254.96572150  .00004158  00000-0  27913-3 0  9991,2 53829  53.2176  68.0516 0001422  82.5124 277.6030 15.08850618 54950,6917.848,95.437,540.697,538.729,0.0
53829.0,STARLINK-4759,PAYLOAD,2023-09-12 11:53:43,15.08839131,0.0001483,53.217,65.6745,72.5479,287.5675,9.8176e-05,1.275e-05,0.0,0 STARLINK-4759,1 53829U 22114M   23255.49564684  .00001275  00000-0  98176-4 0  9990,2 53829  53.2170  65.6745 0001483  72.5479 287.5675 15.08839131 55571,6917.883,95.438,540.774,538.722,0.0
53829.0,STARLINK-4759,PAYLOAD,2023-09-12 16:39:53,15.08843504,0.0001378,53.2169,64.7825,84.3363,275.7787,0.00017753,2.539e-05,0.0,0 STARLINK-4759,1 53829U 22114M   23255.69436514  .00002539  00000-0  17753-3 0  9997,2 53829  53.2169  64.7825 0001378  84.3363 275.7787 15.08843504 55060,6917.87,95.437,540.688,538.781,0.0
53829.0,STARLINK-4759,PAYLOAD,2023-09-12 18:15:16,15.088474,0.0001338,53.217,64.4861,77.4106,282.7036,0.00027289,4.059e-05,0.0,0 STARLINK-4759,1 53829U 22114M   23255.76060459  .00004059  00000-0  27289-3 0  9990,2 53829  53.2170  64.4861 0001338  77.4106 282.7036 15.08847400 55618,6917.858,95.437,540.648,538.797,0.0
53829.0,STARLINK-4759,PAYLOAD,2023-09-12 23:01:25,15.08856813,0.0001399,53.217,63.5922,79.1653,280.9497,0.00043009,6.567e-05,0.0,0 STARLINK-4759,1 53829U 22114M   23255.95932064  .00006567  00000-0  43009-3 0  9995,2 53829  53.2170  63.5922 0001399  79.1653 280.9497 15.08856813 55102,6917.829,95.436,540.662,538.726,0.0
53829.0,STARLINK-4759,PAYLOAD,2023-09-13 03:47:35,15.08840586,0.0001993,53.2176,62.6982,80.4913,279.6305,0.000138,1.909e-05,0.0,0 STARLINK-4759,1 53829U 22114M   23256.15804707  .00001909  00000-0  13800-3 0  9991,2 53829  53.2176  62.6982 0001993  80.4913 279.6305 15.08840586 55134,6917.879,95.438,541.122,538.365,0.0
53829.0,STARLINK-4759,PAYLOAD,2023-09-13 11:44:30,15.088444,9.17e-05,53.2173,61.2133,90.6404,269.4693,0.00015407,2.165e-05,0.0,0 STARLINK-4759,1 53829U 22114M   23256.48924145  .00002165  00000-0  15407-3 0  9996,2 53829  53.2173  61.2133 0000917  90.6404 269.4693 15.08844400 55728,6917.867,95.437,540.366,539.098,0.0
53829.0,STARLINK-4759,PAYLOAD,2023-09-13 18:06:02,15.08861731,0.000119,53.2168,60.0241,79.7671,280.3455,0.0010374,0.00016271,0.0,0 STARLINK-4759,1 53829U 22114M   23256.75419865  .00016271  00000-0  10374-2 0  9994,2 53829  53.2168  60.0241 0001190  79.7671 280.3455 15.08861731 55226,6917.814,95.436,540.502,538.856,0.0
53829.0,STARLINK-4759,PAYLOAD,2023-09-14 09:59:54,15.08842952,0.000104,53.2159,57.0542,90.5143,269.5968,0.00026368,3.911e-05,0.0,0 STARLINK-4759,1 53829U 22114M   23257.41660245  .00003911  00000-0  26368-3 0  9996,2 53829  53.2159  57.0542 0001040  90.5143 269.5968 15.08842952 55328,6917.871,95.437,540.456,539.017,0.0
53829.0,STARLINK-4759,PAYLOAD,2023-09-14 11:35:17,15.08836458,9.84e-05,53.2171,56.7525,39.6474,320.459,0.00044138,6.743e-05,0.0,0 STARLINK-4759,1 53829U 22114M   23257.48284556  .00006743  00000-0  44138-3 0  9991,2 53829  53.2171  56.7525 0000984  39.6474 320.4590 15.08836458 55878,6917.891,95.438,540.437,539.075,0.0
53829.0,STARLINK-4759,PAYLOAD,2023-09-14 17:56:50,15.08835402,0.0001173,53.2172,55.5623,62.5964,297.5148,0.00029525,4.414e-05,0.0,0 STARLINK-4759,1 53829U 22114M   23257.74780822  .00004414  00000-0  29525-3 0  9993,2 53829  53.2172  55.5623 0001173  62.5964 297.5148 15.08835402 55371,6917.894,95.438,540.571,538.948,0.0
53829.0,STARLINK-4759,PAYLOAD,2023-09-15 09:50:42,15.08837286,0.0001139,53.2174,52.5902,92.3173,267.795,0.00034832,5.26e-05,0.0,0 STARLINK-4759,1 53829U 22114M   23258.41021154  .00005260  00000-0  34832-3 0  9991,2 53829  53.2174  52.5902 0001139  92.3173 267.7950 15.08837286 56019,6917.889,95.438,540.542,538.966,0.0
53829.0,STARLINK-4759,PAYLOAD,2023-09-16 09:41:29,15.08845176,0.0001387,53.218,48.1311,87.5476,272.5675,0.00032768,4.932e-05,0.0,0 STARLINK-4759,1 53829U 22114M   23259.40381094  .00004932  00000-0  32768-3 0  9994,2 53829  53.2180  48.1311 0001387  87.5476 272.5675 15.08845176 55629,6917.865,95.437,540.689,538.77,0.0
53829.0,STARLINK-4759,PAYLOAD,2023-09-16 11:16:52,15.08843784,0.0001366,53.2177,47.8339,86.4762,273.6386,0.00022702,3.327e-05,0.0,0 STARLINK-4759,1 53829U 22114M   23259.47005072  .00003327  00000-0  22702-3 0  9994,2 53829  53.2177  47.8339 0001366  86.4762 273.6386 15.08843784 56179,6917.869,95.437,540.679,538.789,0.0
53829.0,STARLINK-4759,PAYLOAD,2023-09-17 09:32:16,15.08845106,0.0001259,53.2172,43.6703,84.9655,275.1481,0.00021001,3.056e-05,0.0,0 STARLINK-4759,1 53829U 22114M   23260.39741136  .00003056  00000-0  21001-3 0  9995,2 53829  53.2172  43.6703 0001259  84.9655 275.1481 15.08845106 55776,6917.865,95.437,540.601,538.859,0.0
